COSMOS 2581             
1 62902U 25026A   26068.82116744  .00002320  00000+0  21137-3 0  9992
2 62902  81.9986 175.8565 0010574  32.7244 327.4629 14.94736104 59374
STARLINK-36175          
1 67012U 25293K   26068.49051163  .00003029  00000+0  26154-3 0  9992
2 67012  70.0001  95.1336 0002879 267.6800  92.4030 14.98333042 14851
